[{"OBJECT_NAME":"FENGYUN 1C DEB","OBJECT_ID":"1999-025CUA","EPOCH":"2023-09-15T18:43:30.931104","MEAN_MOTION":13.81979248,"ECCENTRICITY":0.0136767,"INCLINATION":99.6647,"RA_OF_ASC_NODE":270.1967,"ARG_OF_PERICENTER":203.4042,"MEAN_ANOMALY":333.2448,"EPHEMERIS_TYPE":0,"CLASSIFICATION_TYPE":"U","NORAD_CAT_ID":32180,"ELEMENT_SET_NO":999,"REV_AT_EPOCH":82975,"BSTAR":0.00012489,"MEAN_MOTION_DOT":9.7e-7,"MEAN_MOTION_DDOT":0},{"OBJECT_NAME":"FENGYUN 1C DEB","OBJECT_ID":"1999-025CUB","EPOCH":"2023-09-15T05:50:38.321376","MEAN_MOTION":14.45779054,"ECCENTRICITY":0.008743,"INCLINATION":99.5148,"RA_OF_ASC_NODE":246.1086,"ARG_OF_PERICENTER":348.8037,"MEAN_ANOMALY":23.7735,"EPHEMERIS_TYPE":0,"CLASSIFICATION_TYPE":"U","NORAD_CAT_ID":32181,"ELEMENT_SET_NO":999,"REV_AT_EPOCH":84837,"BSTAR":0.0019558,"MEAN_MOTION_DOT":7.22e-5,"MEAN_MOTION_DDOT":0},{"OBJECT_NAME":"FENGYUN 1C DEB","OBJECT_ID":"1999-025CUD","EPOCH":"2023-09-15T09:37:03.148896","MEAN_MOTION":14.07114094,"ECCENTRICITY":0.004489,"INCLINATION":98.8025,"RA_OF_ASC_NODE":322.2608,"ARG_OF_PERICENTER":208.0947,"MEAN_ANOMALY":151.7799,"EPHEMERIS_TYPE":0,"CLASSIFICATION_TYPE":"U","NORAD_CAT_ID":32183,"ELEMENT_SET_NO":999,"REV_AT_EPOCH":61229,"BSTAR":0.0011021,"MEAN_MOTION_DOT":1.818e-5,"MEAN_MOTION_DDOT":0},{"OBJECT_NAME":"FENGYUN 1C DEB","OBJECT_ID":"1999-025CUE","EPOCH":"2023-09-15T05:12:55.216800","MEAN_MOTION":14.78786568,"ECCENTRICITY":0.0220438,"INCLINATION":98.1004,"RA_OF_ASC_NODE":348.3361,"ARG_OF_PERICENTER":214.0813,"MEAN_ANOMALY":144.6079,"EPHEMERIS_TYPE":0,"CLASSIFICATION_TYPE":"U","NORAD_CAT_ID":32184,"ELEMENT_SET_NO":999,"REV_AT_EPOCH":86092,"BSTAR":0.0016784,"MEAN_MOTION_DOT":0.00018594,"MEAN_MOTION_DDOT":0},{"OBJECT_NAME":"FENGYUN 1C DEB","OBJECT_ID":"1999-025CUF","EPOCH":"2023-09-15T07:10:43.170528","MEAN_MOTION":14.31847697,"ECCENTRICITY":0.0395116,"INCLINATION":98.8829,"RA_OF_ASC_NODE":27.5729,"ARG_OF_PERICENTER":16.6608,"MEAN_ANOMALY":344.7135,"EPHEMERIS_TYPE":0,"CLASSIFICATION_TYPE":"U","NORAD_CAT_ID":32185,"ELEMENT_SET_NO":999,"REV_AT_EPOCH":83036,"BSTAR":0.0020486,"MEAN_MOTION_DOT":0.00013086,"MEAN_MOTION_DDOT":0},{"OBJECT_NAME":"FENGYUN 1C DEB","OBJECT_ID":"1999-025CUG","EPOCH":"2023-09-14T21:04:07.543776","MEAN_MOTION":13.73566596,"ECCENTRICITY":0.0282973,"INCLINATION":99.6941,"RA_OF_ASC_NODE":287.3158,"ARG_OF_PERICENTER":171.62,"MEAN_ANOMALY":2.9133,"EPHEMERIS_TYPE":0,"CLASSIFICATION_TYPE":"U","NORAD_CAT_ID":32186,"ELEMENT_SET_NO":999,"REV_AT_EPOCH":51342,"BSTAR":0.00094993,"MEAN_MOTION_DOT":1.136e-5,"MEAN_MOTION_DDOT":0},{"OBJECT_NAME":"FENGYUN 1C DEB","OBJECT_ID":"1999-025CUH","EPOCH":"2023-09-14T12:32:18.155904","MEAN_MOTION":13.49495854,"ECCENTRICITY":0.0296488,"INCLINATION":99.526,"RA_OF_ASC_NODE":0.3371,"ARG_OF_PERICENTER":36.8848,"MEAN_ANOMALY":24.2294,"EPHEMERIS_TYPE":0,"CLASSIFICATION_TYPE":"U","NORAD_CAT_ID":32187,"ELEMENT_SET_NO":999,"REV_AT_EPOCH":55191,"BSTAR":0.00032439,"MEAN_MOTION_DOT":2.27e-6,"MEAN_MOTION_DDOT":0},{"OBJECT_NAME":"FENGYUN 1C DEB","OBJECT_ID":"1999-025CUM","EPOCH":"2023-09-14T22:21:43.670880","MEAN_MOTION":14.16929326,"ECCENTRICITY":0.0104061,"INCLINATION":98.7816,"RA_OF_ASC_NODE":311.2637,"ARG_OF_PERICENTER":31.4395,"MEAN_ANOMALY":329.2943,"EPHEMERIS_TYPE":0,"CLASSIFICATION_TYPE":"U","NORAD_CAT_ID":32191,"ELEMENT_SET_NO":999,"REV_AT_EPOCH":52857,"BSTAR":0.0015239,"MEAN_MOTION_DOT":3.182e-5,"MEAN_MOTION_DDOT":0},{"OBJECT_NAME":"FENGYUN 1C DEB","OBJECT_ID":"1999-025CUN","EPOCH":"2023-09-15T01:51:25.290720","MEAN_MOTION":13.81338356,"ECCENTRICITY":0.0182881,"INCLINATION":98.7055,"RA_OF_ASC_NODE":181.141,"ARG_OF_PERICENTER":221.1084,"MEAN_ANOMALY":137.6172,"EPHEMERIS_TYPE":0,"CLASSIFICATION_TYPE":"U","NORAD_CAT_ID":32192,"ELEMENT_SET_NO":999,"REV_AT_EPOCH":81391,"BSTAR":0.00031706,"MEAN_MOTION_DOT":3.42e-6,"MEAN_MOTION_DDOT":0},{"OBJECT_NAME":"FENGYUN 1C DEB","OBJECT_ID":"1999-025CUR","EPOCH":"2023-09-14T19:21:09.355392","MEAN_MOTION":14.05920432,"ECCENTRICITY":0.0072803,"INCLINATION":98.79,"RA_OF_ASC_NODE":272.7588,"ARG_OF_PERICENTER":88.4767,"MEAN_ANOMALY":272.474,"EPHEMERIS_TYPE":0,"CLASSIFICATION_TYPE":"U","NORAD_CAT_ID":32195,"ELEMENT_SET_NO":999,"REV_AT_EPOCH":52450,"BSTAR":0.00055183,"MEAN_MOTION_DOT":8.83e-6,"MEAN_MOTION_DDOT":0},{"OBJECT_NAME":"FENGYUN 1C DEB","OBJECT_ID":"1999-025CUT","EPOCH":"2023-09-14T21:20:16.255392","MEAN_MOTION":14.28969612,"ECCENTRICITY":0.0171607,"INCLINATION":98.9752,"RA_OF_ASC_NODE":133.2432,"ARG_OF_PERICENTER":99.3347,"MEAN_ANOMALY":323.0392,"EPHEMERIS_TYPE":0,"CLASSIFICATION_TYPE":"U","NORAD_CAT_ID":32197,"ELEMENT_SET_NO":999,"REV_AT_EPOCH":82699,"BSTAR":0.00046819,"MEAN_MOTION_DOT":1.338e-5,"MEAN_MOTION_DDOT":0},{"OBJECT_NAME":"FENGYUN 1C DEB","OBJECT_ID":"1999-025CUU","EPOCH":"2023-09-14T20:12:10.971360","MEAN_MOTION":14.00632898,"ECCENTRICITY":0.0101081,"INCLINATION":98.3167,"RA_OF_ASC_NODE":100.8986,"ARG_OF_PERICENTER":102.7861,"MEAN_ANOMALY":258.4624,"EPHEMERIS_TYPE":0,"CLASSIFICATION_TYPE":"U","NORAD_CAT_ID":32198,"ELEMENT_SET_NO":999,"REV_AT_EPOCH":45434,"BSTAR":0.0017839,"MEAN_MOTION_DOT":2.737e-5,"MEAN_MOTION_DDOT":0},{"OBJECT_NAME":"FENGYUN 1C DEB","OBJECT_ID":"1999-025CUW","EPOCH":"2023-09-14T21:53:50.567712","MEAN_MOTION":14.10504528,"ECCENTRICITY":0.0044547,"INCLINATION":98.8676,"RA_OF_ASC_NODE":307.0517,"ARG_OF_PERICENTER":98.6571,"MEAN_ANOMALY":261.965,"EPHEMERIS_TYPE":0,"CLASSIFICATION_TYPE":"U","NORAD_CAT_ID":32200,"ELEMENT_SET_NO":999,"REV_AT_EPOCH":82784,"BSTAR":0.0012588,"MEAN_MOTION_DOT":2.219e-5,"MEAN_MOTION_DDOT":0},{"OBJECT_NAME":"FENGYUN 1C DEB","OBJECT_ID":"1999-025CUY","EPOCH":"2023-09-14T07:14:53.338272","MEAN_MOTION":14.43653063,"ECCENTRICITY":0.0089427,"INCLINATION":98.4366,"RA_OF_ASC_NODE":279.1129,"ARG_OF_PERICENTER":38.4697,"MEAN_ANOMALY":322.2823,"EPHEMERIS_TYPE":0,"CLASSIFICATION_TYPE":"U","NORAD_CAT_ID":32202,"ELEMENT_SET_NO":999,"REV_AT_EPOCH":53064,"BSTAR":0.0095071,"MEAN_MOTION_DOT":0.00033984,"MEAN_MOTION_DDOT":0},{"OBJECT_NAME":"FENGYUN 1C DEB","OBJECT_ID":"1999-025CUZ","EPOCH":"2023-09-15T02:43:55.947936","MEAN_MOTION":14.93371218,"ECCENTRICITY":0.029274,"INCLINATION":97.06,"RA_OF_ASC_NODE":197.478,"ARG_OF_PERICENTER":79.0363,"MEAN_ANOMALY":284.3642,"EPHEMERIS_TYPE":0,"CLASSIFICATION_TYPE":"U","NORAD_CAT_ID":32203,"ELEMENT_SET_NO":999,"REV_AT_EPOCH":86445,"BSTAR":0.00066552,"MEAN_MOTION_DOT":0.00016446,"MEAN_MOTION_DDOT":0},{"OBJECT_NAME":"FENGYUN 1C DEB","OBJECT_ID":"1999-025CVB","EPOCH":"2023-09-15T12:45:47.127744","MEAN_MOTION":14.12952217,"ECCENTRICITY":0.0012183,"INCLINATION":98.7021,"RA_OF_ASC_NODE":275.1691,"ARG_OF_PERICENTER":104.9492,"MEAN_ANOMALY":47.09,"EPHEMERIS_TYPE":0,"CLASSIFICATION_TYPE":"U","NORAD_CAT_ID":32205,"ELEMENT_SET_NO":999,"REV_AT_EPOCH":82925,"BSTAR":0.00020891,"MEAN_MOTION_DOT":3.47e-6,"MEAN_MOTION_DDOT":0},{"OBJECT_NAME":"FENGYUN 1C DEB","OBJECT_ID":"1999-025CVD","EPOCH":"2023-09-15T09:03:26.330976","MEAN_MOTION":14.36198122,"ECCENTRICITY":0.0089513,"INCLINATION":99.883,"RA_OF_ASC_NODE":87.3397,"ARG_OF_PERICENTER":322.7686,"MEAN_ANOMALY":156.2863,"EPHEMERIS_TYPE":0,"CLASSIFICATION_TYPE":"U","NORAD_CAT_ID":32207,"ELEMENT_SET_NO":999,"REV_AT_EPOCH":52532,"BSTAR":0.00042099,"MEAN_MOTION_DOT":1.228e-5,"MEAN_MOTION_DDOT":0},{"OBJECT_NAME":"FENGYUN 1C DEB","OBJECT_ID":"1999-025CVF","EPOCH":"2023-09-12T16:20:25.169568","MEAN_MOTION":13.42944039,"ECCENTRICITY":0.0341351,"INCLINATION":99.3603,"RA_OF_ASC_NODE":243.7174,"ARG_OF_PERICENTER":273.6808,"MEAN_ANOMALY":82.5357,"EPHEMERIS_TYPE":0,"CLASSIFICATION_TYPE":"U","NORAD_CAT_ID":32209,"ELEMENT_SET_NO":999,"REV_AT_EPOCH":79013,"BSTAR":0.0020199,"MEAN_MOTION_DOT":1.584e-5,"MEAN_MOTION_DDOT":0},{"OBJECT_NAME":"FENGYUN 1C DEB","OBJECT_ID":"1999-025CVG","EPOCH":"2023-09-11T21:58:17.411520","MEAN_MOTION":14.06020018,"ECCENTRICITY":0.0073411,"INCLINATION":98.9477,"RA_OF_ASC_NODE":302.1097,"ARG_OF_PERICENTER":323.0714,"MEAN_ANOMALY":36.5412,"EPHEMERIS_TYPE":0,"CLASSIFICATION_TYPE":"U","NORAD_CAT_ID":32210,"ELEMENT_SET_NO":999,"REV_AT_EPOCH":49801,"BSTAR":0.0012084,"MEAN_MOTION_DOT":1.986e-5,"MEAN_MOTION_DDOT":0},{"OBJECT_NAME":"FENGYUN 1C DEB","OBJECT_ID":"1999-025CVJ","EPOCH":"2023-09-15T11:08:48.327072","MEAN_MOTION":14.35608336,"ECCENTRICITY":0.0146243,"INCLINATION":99.6243,"RA_OF_ASC_NODE":247.9991,"ARG_OF_PERICENTER":283.5307,"MEAN_ANOMALY":227.0452,"EPHEMERIS_TYPE":0,"CLASSIFICATION_TYPE":"U","NORAD_CAT_ID":32212,"ELEMENT_SET_NO":999,"REV_AT_EPOCH":84286,"BSTAR":0.00075279,"MEAN_MOTION_DOT":2.392e-5,"MEAN_MOTION_DDOT":0},{"OBJECT_NAME":"FENGYUN 1C DEB","OBJECT_ID":"1999-025CVL","EPOCH":"2023-09-14T14:37:34.908384","MEAN_MOTION":13.78334807,"ECCENTRICITY":0.0226923,"INCLINATION":99.0693,"RA_OF_ASC_NODE":300.2612,"ARG_OF_PERICENTER":86.0405,"MEAN_ANOMALY":64.2966,"EPHEMERIS_TYPE":0,"CLASSIFICATION_TYPE":"U","NORAD_CAT_ID":32214,"ELEMENT_SET_NO":999,"REV_AT_EPOCH":51074,"BSTAR":0.0068307,"MEAN_MOTION_DOT":8.319e-5,"MEAN_MOTION_DDOT":0},{"OBJECT_NAME":"FENGYUN 1C DEB","OBJECT_ID":"1999-025CVN","EPOCH":"2023-09-14T00:04:21.600192","MEAN_MOTION":14.43527805,"ECCENTRICITY":0.0045335,"INCLINATION":99.5262,"RA_OF_ASC_NODE":173.5632,"ARG_OF_PERICENTER":235.4537,"MEAN_ANOMALY":124.2366,"EPHEMERIS_TYPE":0,"CLASSIFICATION_TYPE":"U","NORAD_CAT_ID":32216,"ELEMENT_SET_NO":999,"REV_AT_EPOCH":50709,"BSTAR":0.0034744,"MEAN_MOTION_DOT":0.00011874,"MEAN_MOTION_DDOT":0},{"OBJECT_NAME":"FENGYUN 1C DEB","OBJECT_ID":"1999-025CVP","EPOCH":"2023-09-14T04:35:00.569184","MEAN_MOTION":14.44799536,"ECCENTRICITY":0.0045043,"INCLINATION":99.1506,"RA_OF_ASC_NODE":247.831,"ARG_OF_PERICENTER":346.4843,"MEAN_ANOMALY":13.5136,"EPHEMERIS_TYPE":0,"CLASSIFICATION_TYPE":"U","NORAD_CAT_ID":32217,"ELEMENT_SET_NO":999,"REV_AT_EPOCH":44135,"BSTAR":0.003793,"MEAN_MOTION_DOT":0.00013319,"MEAN_MOTION_DDOT":0}]
